[{"OBJECT_NAME":"STARLINK-34977","OBJECT_ID":"2025-179L","EPOCH":"2026-03-09T16:02:19.936320","MEAN_MOTION":15.05645126,"ECCENTRICITY":2.385e-5,"INCLINATION":97.6037,"RA_OF_ASC_NODE":112.9186,"ARG_OF_PERICENTER":77.8914,"MEAN_ANOMALY":282.2339,"EPHEMERIS_TYPE":0,"CLASSIFICATION_TYPE":"U","NORAD_CAT_ID":65245,"ELEMENT_SET_NO":999,"REV_AT_EPOCH":3178,"BSTAR":2.4280506e-5,"MEAN_MOTION_DOT":2.9e-6,"MEAN_MOTION_DDOT":0},{"OBJECT_NAME":"OBJECT H","OBJECT_ID":"2025-292H","EPOCH":"2026-03-09T22:24:53.558208","MEAN_MOTION":15.06373042,"ECCENTRICITY":0.00142604,"INCLINATION":97.6442,"RA_OF_ASC_NODE":145.7846,"ARG_OF_PERICENTER":348.9217,"MEAN_ANOMALY":11.1694,"EPHEMERIS_TYPE":0,"CLASSIFICATION_TYPE":"U","NORAD_CAT_ID":67000,"ELEMENT_SET_NO":999,"REV_AT_EPOCH":1338,"BSTAR":0.0005462937,"MEAN_MOTION_DOT":8.001e-5,"MEAN_MOTION_DDOT":0}]
